NIMIQ 2                 
1 27632U 02062A   26175.20584527 -.00000070  00000+0  00000+0 0  9990
2 27632   9.4626  56.8261 0005759  31.1790 149.2741  1.00271857 44258
ANIK F2                 
1 28378U 04027A   26175.19409976 -.00000045  00000+0  00000+0 0  9995
2 28378   3.3060  79.3552 0004188  12.2007 139.5391  1.00271848 41339
ANIK F1R                
1 28868U 05036A   26175.19714921 -.00000071  00000+0  00000+0 0  9998
2 28868   4.3310  76.4969 0004342   9.3345 150.1947  1.00271862 46524
ANIK F3                 
1 31102U 07009A   26175.19142912  .00000005  00000+0  00000+0 0  9996
2 31102   1.2161  83.7819 0002825  11.5608 127.2179  1.00274254 46637
NIMIQ 4                 
1 33373U 08044A   26175.22270377 -.00000213  00000+0  00000+0 0  9991
2 33373   0.0187 304.2131 0001888 148.8661 177.4708  1.00270482 65054
TELSTAR 11N             
1 34111U 09009A   26175.16298659 -.00000243  00000+0  00000+0 0  9993
2 34111   0.0400  81.2983 0002575  10.5478 201.5952  1.00272729 46319
TERRESTAR-1             
1 35496U 09035A   26175.19350374 -.00000053  00000+0  00000+0 0  9994
2 35496   5.1804  48.7950 0002617  40.3346 141.8619  1.00270173 62207
NIMIQ 5                 
1 35873U 09050A   26175.18837104 -.00000250  00000+0  00000+0 0  9999
2 35873   0.0426 270.5374 0002903 171.3083 185.6161  1.00271767 61416
SKYTERRA 1              
1 37218U 10061A   26175.19828412 -.00000115  00000+0  00000+0 0  9991
2 37218   5.1403  50.8528 0002421  19.4081 172.1528  1.00272862 57260
TELSTAR 14R             
1 37602U 11021A   26175.08663437 -.00000273  00000+0  00000+0 0  9992
2 37602   0.0367  78.9009 0002405 346.7435 174.7956  1.00272399 55903
NIMIQ 6                 
1 38342U 12026A   26175.22367264 -.00000166  00000+0  00000+0 0  9996
2 38342   0.0122  10.3463 0002888  78.2573 173.1910  1.00271925 50488
ANIK G1                 
1 39127U 13014A   26175.19611416 -.00000067  00000+0  00000+0 0  9993
2 39127   0.0292 278.3642 0001846 170.3856 146.8868  1.00272378 48326
TELSTAR 12V             
1 41036U 15068A   26175.16749328 -.00000111  00000+0  00000+0 0  9997
2 41036   0.0137 299.5761 0002367 154.5114 223.5355  1.00273245 38690
VIASAT-2                
1 42740U 17029A   26175.22767060 -.00000258  00000+0  00000+0 0  9991
2 42740   0.0153 301.1892 0000353 112.3888 230.8800  1.00272341 33270
LEO 1 (LEO VANTAGE 1)   
1 43113U 18004C   26174.58992798  .00003434  00000+0  23838-3 0  9992
2 43113  99.2426  93.7143 0351063  59.8966 303.6550 14.67840687438428
TELSTAR 19V             
1 43562U 18059A   26175.08663437 -.00000273  00000+0  00000+0 0  9992
2 43562   0.0158 178.5187 0002860 295.4617 126.4534  1.00271347 29217
TELSTAR 18V             
1 43611U 18069A   26175.17475344 -.00000287  00000+0  00000+0 0  9991
2 43611   0.0153 299.4938 0002046 150.9191  22.8217  1.00271042 28715
AMOS-17                 
1 44479U 19050A   26174.93020750  .00000116  00000+0  00000+0 0  9995
2 44479   0.0161 338.2141 0001929 139.5461 146.1952  1.00271061 25250
